GLOBALSTAR M084         
1 38040U 11080A   24150.36462543 -.00000097  00000+0  36267-4 0  9994
2 38040  51.9987 136.9676 0000291 339.5532 168.4654 12.62262970574193
GLOBALSTAR M080         
1 38041U 11080B   24150.42117854 -.00000101  00000+0  16024-4 0  9999
2 38041  52.0037 138.2677 0000345 284.3650 240.5081 12.62273231574329
GLOBALSTAR M082         
1 38042U 11080C   24150.27211984 -.00000096  00000+0  41532-4 0  9997
2 38042  52.0075  94.1273 0001069  57.5026  89.0253 12.62269736575014
GLOBALSTAR M092         
1 38043U 11080D   24150.56604671 -.00000108  00000+0 -23948-4 0  9995
2 38043  52.0059 183.5884 0000071  55.9384 108.4118 12.62262908573714
GLOBALSTAR M090         
1 38044U 11080E   24150.92411457 -.00000089  00000+0  84928-4 0  9996
2 38044  51.9888  86.4441 0000776  63.4657  47.7238 12.62263514575211
GLOBALSTAR M086         
1 38045U 11080F   24150.24573970 -.00000095  00000+0  51262-4 0  9993
2 38045  51.9900  89.0303 0000630 157.0119 350.7006 12.62271258575073
GLOBALSTAR M097         
1 39072U 13005A   24150.79448534 -.00000087  00000+0  94299-4 0  9998
2 39072  52.0069   1.5219 0000996  97.6467 262.4513 12.62263355522395
GLOBALSTAR M093         
1 39073U 13005B   24150.84702796 -.00000085  00000+0  10604-3 0  9993
2 39073  51.9832 355.2772 0001116 101.2117 258.8875 12.62259666522350
